C/2018 A6 (Gibbs),e,77.0564,340.3810,264.3985,15.10946,0.0167815,0.80029150,16.7732,04/07.0/2022,2000,g  9.0,4.0
# From MPC118841
C/2018 B1 (Lemmon),e,162.4204,133.1904,68.3537,10335,0.0000009,0.99950425,0.0000,03/28.4150/2018,2000,g  9.0,4.0
# From MPC114601
P/2018 C1 (Lemmon-Read),e,5.1143,270.3538,235.7070,5.653570,0.0733196,0.53216201,110.1896,04/07.0/2022,2000,g 13.5,4.0
# From MPC114601
C/2018 C2 (Lemmon),h,05/31.9159/2018,34.4624,91.1960,134.0757,1.000294,1.960377,2000,13.0,4.0
# From MPEC 2021-U31
C/2018 DO4 (Lemmon),e,160.4500,251.3960,176.2642,25.42671,0.0076872,0.90514965,7.4074,04/07.0/2022,2000,g 11.0,4.0
# From MPC114602
C/2018 E1 (ATLAS),e,72.5140,146.8621,299.3222,53.86298,0.0024933,0.94994191,3.6160,04/07.0/2022,2000,g 10.5,4.0
# From MPC114602
C/2018 E2 (Barros),e,97.6551,67.1715,277.4472,3542,0.0000047,0.99889348,0.0000,12/23.9228/2017,2000,g 10.5,4.0
# From MPC114602
C/2018 EN4 (NEOWISE),e,81.9274,136.1281,35.0634,18.00556,0.0129001,0.91886580,18.1062,04/07.0/2022,2000,g 15.0,4.0
# From MPC114602
C/2018 EF9 (Lemmon),e,84.6168,172.5536,72.6239,485.3695,0.0000922,0.99678656,0.0000,05/21.9800/2018,2000,g 18.0,2.0
# From MPEC 2021-R75
C/2018 F1 (Grauer),e,46.0776,177.2756,71.6083,255.4732,0.0002414,0.98827327,0.0000,12/12.8617/2018,2000,g 11.5,4.0
# From MPC110084
C/2018 F3 (Johnson),p,08/15.2314/2017,105.5348,293.0113,2.483172,173.0311,2000,13.0,4.0
# From MPEC 2021-W31
C/2018 F4 (PANSTARRS),h,12/03.8191/2019,78.0863,26.5157,263.2300,1.000552,3.441929,2000,11.0,6.0
# From MPEC 2021-Y10
C/2018 F4-A,h,12/03.8074/2019,78.0864,26.5159,263.2268,1.000500,3.441798,2000,11.0,6.0
# From MPEC 2021-W31
C/2018 F4-B,h,12/03.7436/2019,78.0872,26.5155,263.2118,1.000596,3.441580,2000,11.0,6.0
# From MPC114602
P/2018 H2 (PANSTARRS),e,7.3964,68.2068,119.9605,4.386251,0.1072911,0.54122752,164.8697,04/07.0/2022,2000,g 16.6,2.0
# From MPC114602
C/2018 K1 (Weiland),e,164.1923,260.1175,325.1919,30.14039,0.0059564,0.93752922,8.7007,04/07.0/2022,2000,g 14.9,4.0
# From MPEC 2021-R75
C/2018 KJ3 (Lemmon),e,136.6941,91.6282,217.6781,949.8079,0.0000337,0.99617880,0.0000,09/09.9084/2019,2000,g 12.2,2.0
# From MPC114602
P/2018 L1 (PANSTARRS),e,10.5852,268.6279,18.0280,3.652576,0.1411904,0.48230109,175.3175,04/07.0/2022,2000,g 15.0,4.0
# From MPEC 2021-P47
C/2018 L2 (ATLAS),e,67.3158,243.0147,56.3051,261.2056,0.0002335,0.99343653,0.0000,12/02.5655/2018,2000,g 10.0,4.0
# From MPC114603
P/2018 L4 (PANSTARRS),e,26.6243,145.1563,140.6159,4.943706,0.0896654,0.65959969,120.6477,04/07.0/2022,2000,g 17.5,4.0
# From MPC119996
P/2018 L5 (Leonard),e,2.2082,219.0717,93.9139,3.628580,0.1425933,0.36453211,204.2672,04/07.0/2022,2000,g 14.5,4.0
# From MPC117070
C/2018 M1 (Catalina),e,37.3009,339.4092,14.2064,21.44429,0.0099251,0.93922003,13.5608,04/07.0/2022,2000,g 15.5,4.0
# From MPC112393
C/2018 N1 (NEOWISE),e,159.4301,292.4866,354.6987,378.7546,0.0001337,0.99653958,0.0000,08/02.3197/2018,2000,g 15.5,4.0
# From MPEC 2022-F14
C/2018 N2 (ASASSN),h,11/11.1083/2019,77.5422,25.2175,24.4383,1.000473,3.125890,2000,6.0,4.0
# From MPC114603
C/2018 O1 (ATLAS),e,154.0212,87.7165,162.6680,28.04330,0.0066368,0.94435782,8.7208,04/07.0/2022,2000,g 17.0,4.0
# From MPC114603
P/2018 P3 (PANSTARRS),e,8.9122,59.1630,305.9297,3.005048,0.1892025,0.41694220,241.0961,04/07.0/2022,2000,g 14.5,4.0
# From MPC114603
P/2018 P4 (PANSTARRS),e,23.1099,353.0613,8.3398,6.679347,0.0570956,0.45066783,71.1008,04/07.0/2022,2000,g 12.0,4.0
# From MPEC 2021-P47
C/2018 P5 (PANSTARRS),e,7.2489,216.2183,131.8574,12.82876,0.0214500,0.64285533,24.3288,04/07.0/2022,2000,g 11.0,4.0
# From MPC118841
C/2018 R3 (Lemmon),e,69.7264,324.6324,112.7709,1563,0.0000160,0.99917692,0.0000,06/07.4771/2019,2000,g  9.5,4.0
# From MPC112393
C/2018 R4 (Fuls),e,11.6781,298.4826,345.3193,336.7758,0.0001595,0.99489452,0.0000,03/03.1871/2018,2000,g 14.0,4.0
# From MPC114603
C/2018 R5 (Lemmon),e,103.7498,171.1135,178.1272,22.83476,0.0090325,0.84113067,10.6844,04/07.0/2022,2000,g 11.5,4.0
# From MPEC 2022-F14
C/2018 U1 (Lemmon),h,11/03.1412/2021,108.3035,75.4811,180.4719,1.001457,4.993019,2000,5.0,4.0
# From MPC114604
C/2018 V1 (Machholz-Fujikawa-Iwamoto),h,12/02.9401/2018,144.0681,128.9379,88.9517,1.000333,0.388441,2000,12.0,4.0
# From MPC115884
C/2018 V2 (ATLAS),e,159.1676,357.0791,318.9595,25.03916,0.0078664,0.90094108,9.6620,04/07.0/2022,2000,g 15.0,4.0
# From MPC114604
P/2018 VN2 (Leonard),e,18.2572,226.4727,138.8008,4.064205,0.1202931,0.47884224,168.4638,04/07.0/2022,2000,g 15.0,4.0
# From MPEC 2021-P47
A/2018 V3,e,164.9742,308.6699,3.5766,125.3405,0.0007024,0.98929745,0.0000,09/08.8416/2019,2000,g 15.7,2.0
# From MPC114604
C/2018 V4 (Africano),e,69.0134,78.3223,359.9266,203.7920,0.0003388,0.98432041,0.0000,03/01.3876/2019,2000,g 12.5,4.0
# From MPEC 2021-P47
P/2018 V5 (Trujillo-Sheppard),e,10.5887,171.2866,260.6556,8.956257,0.0367717,0.47510443,47.1406,04/07.0/2022,2000,g 12.5,4.0
# From MPEC 2021-P47
C/2018 W1 (Catalina),e,83.3249,233.6253,251.2315,21.67660,0.0097660,0.93724996,10.3649,04/07.0/2022,2000,g 15.5,2.0
# From MPEC 2021-P47
C/2018 W2 (Africano),h,09/05.4562/2019,116.6245,181.8213,158.0118,1.000438,1.457687,2000,9.5,4.0
# From MPC119996
C/2018 X2 (Fitzsimmons),e,23.0694,340.8300,161.9962,142.0562,0.0005821,0.98504443,0.0000,07/08.2034/2019,2000,g 12.0,4.0
# From MPC114604
C/2018 X3 (PANSTARRS),e,43.3871,78.8660,359.7325,12.36969,0.0226551,0.78227642,27.0337,04/07.0/2022,2000,g 14.5,4.0
# From MPC118842
C/2018 Y1 (Iwamoto),e,160.4005,147.5096,357.9656,134.8342,0.0006295,0.99047887,0.0000,02/06.5993/2019,2000,g 11.5,4.0
# From MPC114605
P/2018 Y2 (Africano),e,11.6825,297.2430,162.2666,7.455787,0.0484132,0.47880435,57.6865,04/07.0/2022,2000,g 11.5,4.0
# From MPC114605
P/2019 A1 (PANSTARRS),e,13.7458,312.2908,150.7255,5.118942,0.0851008,0.56859230,108.4526,04/07.0/2022,2000,g 16.0,4.0
# From MPEC 2021-P47
P/2019 A2 (ATLAS),e,14.8599,139.4665,323.9157,5.717332,0.0720965,0.38159935,88.9581,04/07.0/2022,2000,g 10.5,4.0
# From MPEC 2021-P47
P/2019 A3 (PANSTARRS),e,15.3731,31.2918,325.5678,3.145705,0.1766555,0.26596974,237.1692,04/07.0/2022,2000,g 16.0,4.0
# From MPC114605
P/2019 A4 (PANSTARRS),e,13.3064,119.2574,342.5908,2.614508,0.2331412,0.08723799,283.3568,04/07.0/2022,2000,g 15.0,4.0
# From MPEC 2021-P47
C/2019 A5 (PANSTARRS),e,67.5581,146.6253,355.8772,21.52624,0.0098685,0.70645051,10.2093,04/07.0/2022,2000,g  9.5,4.0
# From MPC114605
P/2019 A6 (Lemmon-PANSTARRS),e,33.2437,280.2354,156.1784,5.359346,0.0794395,0.63941405,104.5886,04/07.0/2022,2000,g 16.0,4.0
# From MPC115884
P/2019 A8 (PANSTARRS),e,2.2422,116.2597,64.4528,4.193456,0.1147746,0.26797995,149.4898,04/07.0/2022,2000,g 16.0,4.0
# From MPC118842
C/2019 A9 (PANSTARRS),e,84.1873,278.3873,237.9341,39.25770,0.0040070,0.96354942,3.9504,04/07.0/2022,2000,g 15.0,4.0
# From MPC114606
C/2019 B1 (Africano),e,123.3740,290.4187,174.8028,139.3031,0.0005995,0.98853814,0.0000,03/19.2398/2019,2000,g 16.0,4.0
# From MPC115885
P/2019 B2 (Groeller),e,17.0110,175.7622,0.9067,3.896934,0.1281208,0.36670453,132.6223,04/07.0/2022,2000,g 14.5,4.0
# From MPEC 2022-C56
C/2019 B3 (PANSTARRS),h,01/20.3979/2021,66.5353,358.4367,263.9443,1.001265,6.823721,2000,5.5,4.0
# From MPEC 2021-P47
C/2019 C1 (ATLAS),e,36.0410,212.3865,319.1417,675.2914,0.0000562,0.99025649,0.0000,05/04.9453/2020,2000,g 10.0,4.0
# From MPC118842
C/2019 D1 (Flewelling),e,34.0430,231.6922,70.6042,143.1360,0.0005755,0.98894846,0.0000,05/11.7172/2019,2000,g 13.0,4.0
# From MPEC 2022-F14
C/2019 E3 (ATLAS),h,11/13.9798/2023,84.2976,347.2542,280.6524,1.001787,10.313706,2000,2.5,4.0
# From MPEC 2022-F14
C/2019 F1 (ATLAS-Africano),h,06/22.9993/2021,54.1779,38.7111,251.1694,1.003745,3.596211,2000,5.5,4.0
# From MPEC 2021-P47
C/2019 F2 (ATLAS),e,19.2299,175.5594,11.5323,16.66817,0.0144835,0.86533553,13.6359,04/07.0/2022,2000,g 12.0,4.0
# From MPEC 2021-P47
A/2019 G2,e,159.2083,208.1535,82.6196,538.4430,0.0000789,0.99574365,0.0000,12/09.5575/2019,2000,g 16.5,2.0
# From MPEC 2021-N06
A/2019 G4,h,09/16.1035/2018,138.3774,130.4628,287.8440,1.002052,5.854558,2000,13.0,2.0
# From MPC114607
P/2019 GG21 (PANSTARRS),e,6.0844,340.5680,208.6153,7.473115,0.0482449,0.47226408,51.2481,04/07.0/2022,2000,g 12.0,4.0
# From MPC115885
C/2019 H1 (NEOWISE),e,104.5255,269.2293,19.3477,241.5185,0.0002626,0.99235580,0.0000,04/27.9343/2019,2000,g 15.5,4.0
# From MPC118842
C/2019 J1 (Lemmon),e,24.5481,98.1157,167.7891,68.93364,0.0017221,0.96398762,1.8845,04/07.0/2022,2000,g 12.0,4.0
# From MPEC 2021-R75
C/2019 J2 (Palomar),e,105.2143,25.5362,98.7305,160.8013,0.0004834,0.98927057,0.0000,07/19.8931/2019,2000,g 13.0,4.0
# From MPC117071
C/2019 J3 (ATLAS),h,08/02.1796/2019,131.3911,270.5599,16.6200,1.000637,2.374101,2000,13.5,4.0
# From MPC117071
C/2019 JU6 (ATLAS),e,148.3263,21.7722,94.9592,362.9184,0.0001426,0.99436126,0.0000,06/01.1629/2019,2000,g 14.5,4.0
# From MPEC 2021-P47
C/2019 K1 (ATLAS),h,02/12.9756/2020,87.1029,73.3662,265.7145,1.000015,2.012690,2000,10.0,4.0
# From MPC119997
C/2019 K4 (Ye),e,105.2970,180.1439,139.8041,1316,0.0000206,0.99828022,0.0000,06/15.9912/2019,2000,g 12.5,4.0
# From MPEC 2021-P47
C/2019 K5 (Young),e,15.3186,177.1312,175.0587,163.8386,0.0004700,0.98756308,0.0000,06/23.0453/2019,2000,g 13.0,4.0
# From MPEC 2021-P47
C/2019 K6 (PANSTARRS),e,132.3837,42.9697,187.6341,1905,0.0000119,0.99793785,0.0000,05/20.2492/2020,2000,g 11.5,4.0
# From MPEC 2022-F14
C/2019 K7 (Smith),h,06/17.3187/2020,103.5420,307.9371,27.3621,1.000386,4.476933,2000,6.0,4.0
# From MPEC 2021-R75
C/2019 K8 (ATLAS),e,93.1935,291.0451,85.3929,2609,0.0000074,0.99877561,0.0000,07/21.6974/2019,2000,g 11.5,4.0
# From MPC118095
C/2019 L1 (PANSTARRS),e,9.9872,254.4254,50.0133,9.841944,0.0319215,0.70586854,30.9546,04/07.0/2022,2000,g 13.5,4.0
# From MPC115886
C/2019 L2 (NEOWISE),e,152.2029,12.5555,18.7918,24.91850,0.0079236,0.93483815,8.7265,04/07.0/2022,2000,g 16.0,4.0
# From MPEC 2021-Y10
P/2019 LD2 (ATLAS),e,11.6192,179.5897,121.8525,5.243513,0.0820863,0.12802106,61.0706,04/07.0/2022,2000,g  8.5,4.0
# From MPEC 2022-F14
